E-ST@R-II               
1 41459U 16025D   22175.16633286  .00009344  00000+0  40635-3 0  9999
2 41459  98.1874 340.8170 0144185 246.2183 112.3812 15.13540579338512
AAUSAT 4                
1 41460U 16025E   22174.99397687  .00018526  00000+0  70934-3 0  9990
2 41460  98.1798 346.8896 0125097 222.6056 136.5417 15.19526981338930
BEESAT-4                
1 41619U 16040W   22174.38911617  .00013580  00000+0  45060-3 0  9998
2 41619  97.2166 224.8598 0011359  97.6859 262.5673 15.31293003321638
RAVAN                   
1 41849U 16067B   22175.17919472  .00002482  00000+0  20025-3 0  9990
2 41849  98.0011 312.3517 0015624 325.5516  34.4693 15.00766062307006
CELTEE 1                
1 41850U 16067C   22174.32306011  .00002531  00000+0  21681-3 0  9991
2 41850  97.9994 306.4971 0007022 330.7217  29.3610 14.98491205306633
OPTICUBE 04             
1 41851U 16067D   22175.17469935  .00001504  00000+0  13331-3 0  9993
2 41851  97.9969 306.4157 0007368 325.6852  34.3893 14.97797511306719
AEROCUBE 8D             
1 41852U 16067E   22175.18124768  .00002638  00000+0  22639-3 0  9997
2 41852  97.9960 306.4305 0007611 327.4237  32.6515 14.98387993306705
AEROCUBE 8C             
1 41853U 16067F   22174.16072022  .00002103  00000+0  18171-3 0  9993
2 41853  97.9937 305.2089 0008689 324.8308  35.2340 14.98346023306548
PROMETHEUS 2-1          
1 41854U 16067G   22174.79251117  .00003401  00000+0  28172-3 0  9991
2 41854  97.9993 306.9339 0008946 337.5048  22.5781 14.99541178306698
PROMETHEUS 2-3          
1 41855U 16067H   22174.31802340  .00004210  00000+0  34744-3 0  9991
2 41855  97.9969 306.5226 0007819 340.9885  19.1044 14.99548319306629
INS-1B                  
1 41954U 17008G   22174.58139536  .00011665  00000+0  38363-3 0  9999
2 41954  97.2574 234.3397 0007345 199.3213 160.7751 15.31656548297680
BGUSAT                  
1 41999U 17008BD  22175.15896269  .00026048  00000+0  62737-3 0  9998
2 41999  97.2810 245.5381 0006060 181.2439 178.8794 15.41225067297677
DIDO-2                  
1 42000U 17008BE  22174.44614855  .00006085  00000+0  22106-3 0  9997
2 42000  97.2562 233.5881 0006233 226.0066 134.0661 15.28626908296987
PEASSS                  
1 42015U 17008BV  22174.40856504  .00010448  00000+0  34298-3 0  9991
2 42015  97.2631 237.3902 0004514 213.7089 146.3867 15.31759952297686
AL-FARABI 1             
1 42016U 17008BW  22174.15720956  .00015109  00000+0  45142-3 0  9994
2 42016  97.2695 240.1763 0004295 205.2146 154.8888 15.34676990297927
NAYIF-1 (EO-88)         
1 42017U 17008BX  22174.82369898  .00012879  00000+0  38336-3 0  9991
2 42017  97.2687 240.8452 0004610 201.0077 159.0978 15.34830786298056
UCLSAT                  
1 42765U 17036A   22174.66838458  .00010002  00000+0  34737-3 0  9994
2 42765  97.1970 217.1380 0007426 307.2432  52.8131 15.29925310278218
LITUANICASAT-2          
1 42768U 17036D   22174.39654452  .00024471  00000+0  70110-3 0  9997
2 42768  97.2056 219.6241 0008199 281.4002  78.6321 15.35873240278166
AALTO-1                 
1 42775U 17036L   22174.00820552  .00006179  00000+0  24481-3 0  9994
2 42775  97.1973 211.5459 0010801 312.0892  47.9428 15.25706495277627
URSA MAIOR              
1 42776U 17036M   22174.38049387  .00007465  00000+0  29018-3 0  9995
2 42776  97.1986 212.6378 0010424 309.2376  50.7937 15.26274719277717
COMPASS 2               
1 42777U 17036N   22174.69541383  .00014145  00000+0  44878-3 0  9997
2 42777  97.2044 219.2612 0007425 288.3115  71.7319 15.32761082278105
DIAMOND RED             
1 42783U 17036U   22174.34715463  .00007929  00000+0  29631-3 0  9990
2 42783  97.1991 214.9413 0008823 315.8584  44.1951 15.27576546277841
PEGASUS                 
1 42784U 17036V   22174.39770284  .00010805  00000+0  38553-3 0  9998
2 42784  97.1988 216.1368 0008330 311.7667  48.2861 15.29015437277924
DIAMOND GREEN           
1 42785U 17036W   22174.41108449  .00006098  00000+0  22865-3 0  9998
2 42785  97.1994 215.0681 0008706 317.1465  42.9095 15.27563945277921
DIAMOND BLUE            
1 42786U 17036X   22174.41011612  .00007724  00000+0  28901-3 0  9998
2 42786  97.1995 215.0593 0008727 317.5675  42.4890 15.27544433277924
NUDTSAT                 
1 42787U 17036Y   22174.56196631  .00019926  00000+0  60878-3 0  9996
2 42787  97.2025 220.4349 0006495 298.6217  61.4364 15.33898083278030
SUCHAI                  
1 42788U 17036Z   22174.45216451  .00011742  00000+0  39632-3 0  9990
2 42788  97.1995 217.8362 0007430 304.7951  55.2591 15.30812616278101
SKCUBE                  
1 42789U 17036AA  22174.45173496  .00010543  00000+0  36456-3 0  9991
2 42789  97.1992 217.2970 0007541 306.6112  53.4435 15.30051995277999
VZLUSAT-1               
1 42790U 17036AB  22174.43952687  .00016417  00000+0  50467-3 0  9992
2 42790  97.2019 220.2823 0006213 294.3933  65.6661 15.33744713278168
ROBUSTA-1B              
1 42792U 17036AD  22175.05921154  .00010418  00000+0  35452-3 0  9990
2 42792  97.1992 218.4519 0007053 303.9685  56.0885 15.30580398278137
CICERO 6                
1 42793U 17036AE  22174.43311775  .00006381  00000+0  23983-3 0  9994
2 42793  97.1972 215.5735 0007325 316.4553  43.6108 15.27477948277983
CORVUS BC2              
1 42846U 17042X   22175.05131517  .00000779  00000+0  80127-4 0  9992
2 42846  97.4226  31.9875 0008916 344.9201  15.1752 14.92913750269263
CORVUS BC1              
1 42847U 17042Y   22175.06442525  .00000886  00000+0  90173-4 0  9999
2 42847  97.4228  32.3069 0008535 344.1179  15.9772 14.93017424269274
MIRATA                  
1 43015U 17073C   22175.16504993  .00004031  00000+0  29472-3 0  9999
2 43015  97.6745  70.2246 0239132 158.6997 202.4380 14.84023071248260
MAKERSAT 0              
1 43016U 17073D   22174.46096842  .00003618  00000+0  27056-3 0  9997
2 43016  97.6763  69.1149 0245834 165.3634 195.4869 14.82337271248079
AEROCUBE 7B (OCSD B)    
1 43042U 17071F   22174.83775389  .00177484  00000+0  77315-3 0  9991
2 43042  51.6322   9.5978 0005429 234.6135 125.4362 15.83698608256703
AEROCUBE 7C (OCSD C)    
1 43043U 17071G   22174.82340905  .00153206  00000+0  77015-3 0  9996
2 43043  51.6301  11.7211 0004799 228.1447 131.9146 15.80705842256640
ASGARDIA 1              
1 43049U 17071N   22173.89201185  .00112095  00000+0  74409-3 0  9999
2 43049  51.6317  19.2179 0003091 201.6963 158.3905 15.74622013256458
PROPCUBE 2 (FAUNA)      
1 43052U 17071R   22173.71714524  .00227851  00000+0  92550-3 0  9994
2 43052  51.6248   9.6751 0004893 238.4544 121.5982 15.85029428256560
CORVUS BC3              
1 43118U 18004H   22174.46175738  .00006010  00000+0  22635-3 0  9994
2 43118  97.3626 247.0903 0008452 352.0437   8.0667 15.27435175247134
MICROMAS-2A             
1 43131U 18004W   22174.47483152  .00019335  00000+0  54331-3 0  9994
2 43131  97.3756 253.7671 0004687 334.2659  25.8351 15.36553995247502
SPACEBEE-4              
1 43139U 18004AE  22174.65013115  .00042424  00000+0  89896-3 0  9999
2 43139  97.3850 258.9281 0002880 302.8401  57.2570 15.44967721247796
SPACEBEE-3              
1 43140U 18004AF  22174.42709380  .00086909  00000+0  12584-2 0  9997
2 43140  97.3887 262.5328 0003112 246.3697 113.7231 15.55585898247996
SPACEBEE-2              
1 43141U 18004AG  22175.03339178  .00109596  00000+0  12814-2 0  9994
2 43141  97.3900 264.7189 0004569 238.2180 121.8633 15.61209102248171
SPACEBEE-1              
1 43142U 18004AH  22175.09400527  .00203909  00000+0  16217-2 0  9992
2 43142  97.3882 266.6013 0006955 234.4212 125.6403 15.70575257248289
CICERO 7                
1 43143U 18004AJ  22174.46539923  .00013023  00000+0  40082-3 0  9990
2 43143  97.3734 253.2686 0004497 352.4137   7.7036 15.33771259247493
GOMX-4B                 
1 43196U 18015E   22175.16524177  .00004823  00000+0  18329-3 0  9990
2 43196  97.5339 314.6089 0017839  38.2512 321.9988 15.27144586244183
GOMX-4A                 
1 43197U 18015F   22175.20923818  .00006566  00000+0  23572-3 0  9993
2 43197  97.5340 315.4695 0017428  37.8521  84.4671 15.28886661244253
AEROCUBE 12A            
1 43556U 18046C   22174.47541055  .00017372  00000+0  44487-3 0  9998
2 43556  51.6357 154.5069 0008389  55.8436 304.3343 15.39451655220245
AEROCUBE 12B            
1 43557U 18046D   22174.48478269  .00012803  00000+0  35222-3 0  9997
2 43557  51.6369 159.0008 0008370  53.3788 306.7964 15.37502982220136
SURFSAT                 
1 43614U 18070B   22174.49823893  .00034698  00000+0  50243-3 0  9992
2 43614  93.0298 101.3175 0010605  16.3368 343.8235 15.55709184212006
CP7 (DAVE)              
1 43615U 18070C   22174.25433270  .00034648  00000+0  52553-3 0  9994
2 43615  93.0299 101.0633 0011272  18.6416 341.5257 15.54430922211934
ELFIN-B                 
1 43616U 18070D   22173.80979012  .00089618  00000+0  79414-3 0  9996
2 43616  93.0198 102.0942 0007188  26.4922 333.6714 15.68290014212197
ELFIN-A                 
1 43617U 18070E   22175.14314141  .00096761  00000+0  76738-3 0  9995
2 43617  93.0261 104.0360 0005204  25.5182 334.6346 15.70983447212453
CUBEBEL-1 (BSUSAT-1)    
1 43666U 18083E   22175.09332771  .00009056  00000+0  38317-3 0  9998
2 43666  97.4206 203.7031 0011525 315.1947 129.1580 15.23364507202494
CICERO 10               
1 43690U 18088A   22174.40452845  .00007422  00000+0  29546-3 0  9998
2 43690  85.0355 312.3859 0015317 122.0847 238.1886 15.24953798200665
IRVINE01                
1 43693U 18088D   22174.84202992  .00030606  00000+0  80661-3 0  9990
2 43693  85.0280 306.5134 0013025  90.8781 269.3962 15.38278707201206
PROXIMA I               
1 43694U 18088E   22174.35823441  .00008112  00000+0  30714-3 0  9996
2 43694  85.0294 309.0937 0019130  92.9375 267.4059 15.26567240200874
PROXIMA II              
1 43696U 18088G   22174.35847083  .00008113  00000+0  30737-3 0  9992
2 43696  85.0295 309.1120 0019182  92.9499 267.3941 15.26546209200866
